{"type": "FeatureCollection", "features": [ {"type": "Feature", "properties": {"norad_id": 40664, "name": "SKY MEXICO-1", "group": "intelsat", "lat": -0.00411448980896574, "lon": -135.80057888568078, "alt_km": 35779.198206629466, "timestamp": "2025-12-10T14:53:36.790219+00:00", "meta": {"OBJECT_NAME": "SKY MEXICO-1", "OBJECT_ID": "2015-026B", "EPOCH": "2025-12-10T04:15:38.659392", "MEAN_MOTION": 1.00270655, "ECCENTRICITY": 0.00027262, "INCLINATION": 0.029, "RA_OF_ASC_NODE": 67.5493, "ARG_OF_PERICENTER": 207.8932, "MEAN_ANOMALY": 148.8575, "EPHEMERIS_TYPE": 0, "CLASSIFICATION_TYPE": "U", "NORAD_CAT_ID": 40664, "ELEMENT_SET_NO": 999, "REV_AT_EPOCH": 3855, "BSTAR": 0, "MEAN_MOTION_DOT": -2.31e-06, "MEAN_MOTION_DDOT": 0}, "tle": {"line1": "1 40664U 15026B   25344.17753078 -.00000231  00000+0  00000+0 0  9995", "line2": "2 40664   0.0290  67.5493 0002726 207.8932 148.8575  1.00270655 38550"}}, "geometry": {"type": "Point", "coordinates": [-135.80057888568078, -0.00411448980896574]}}, {"type": "Feature", "properties": {"norad_id": 40874, "name": "INTELSAT 34 (IS-34)", "group": "intelsat", "lat": -0.0260675318062139, "lon": -112.49985137119602, "alt_km": 35786.24025533764, "timestamp": "2025-12-10T14:53:36.790230+00:00", "meta": {"OBJECT_NAME": "INTELSAT 34 (IS-34)", "OBJECT_ID": "2015-039A", "EPOCH": "2025-12-10T03:59:38.770944", "MEAN_MOTION": 1.00269978, "ECCENTRICITY": 5.547e-05, "INCLINATION": 0.0112, "RA_OF_ASC_NODE": 310.175, "ARG_OF_PERICENTER": 217.3462, "MEAN_ANOMALY": 276.0397, "EPHEMERIS_TYPE": 0, "CLASSIFICATION_TYPE": "U", "NORAD_CAT_ID": 40874, "ELEMENT_SET_NO": 999, "REV_AT_EPOCH": 3773, "BSTAR": 0, "MEAN_MOTION_DOT": -2.82e-06, "MEAN_MOTION_DDOT": 0}, "tle": {"line1": "1 40874U 15039A   25344.16642096 -.00000282  00000+0  00000+0 0  9994", "line2": "2 40874   0.0112 310.1750 0000554 217.3462 276.0397  1.00269978 37731"}}, "geometry": {"type": "Point", "coordinates": [-112.49985137119602, -0.0260675318062139]}}, {"type": "Feature", "properties": {"norad_id": 41581, "name": "INTELSAT 31 (IS-31)", "group": "intelsat", "lat": -0.021427007922862954, "lon": -152.076814695525, "alt_km": 35778.15850814998, "timestamp": "2025-12-10T14:53:36.790240+00:00", "meta": {"OBJECT_NAME": "INTELSAT 31 (IS-31)", "OBJECT_ID": "2016-035A", "EPOCH": "2025-12-09T19:58:11.640288", "MEAN_MOTION": 1.00271843, "ECCENTRICITY": 0.00019398, "INCLINATION": 0.0162, "RA_OF_ASC_NODE": 272.8393, "ARG_OF_PERICENTER": 308.881, "MEAN_ANOMALY": 61.5794, "EPHEMERIS_TYPE": 0, "CLASSIFICATION_TYPE": "U", "NORAD_CAT_ID": 41581, "ELEMENT_SET_NO": 999, "REV_AT_EPOCH": 3478, "BSTAR": 0, "MEAN_MOTION_DOT": -1.48e-06, "MEAN_MOTION_DDOT": 0}, "tle": {"line1": "1 41581U 16035A   25343.83207917 -.00000148  00000+0  00000+0 0  9990", "line2": "2 41581   0.0162 272.8393 0001939 308.8810  61.5794  1.00271843 34784"}}, "geometry": {"type": "Point", "coordinates": [-152.076814695525, -0.021427007922862954]}}, {"type": "Feature", "properties": {"norad_id": 41747, "name": "INTELSAT 36 (IS-36)", "group": "intelsat", "lat": 0.007983890526551962, "lon": 11.493134958140185, "alt_km": 35782.925028663536, "timestamp": "2025-12-10T14:53:36.790251+00:00", "meta": {"OBJECT_NAME": "INTELSAT 36 (IS-36)", "OBJECT_ID": "2016-053A", "EPOCH": "2025-12-09T22:23:38.607072", "MEAN_MOTION": 1.00269772, "ECCENTRICITY": 0.00014434, "INCLINATION": 0.0118, "RA_OF_ASC_NODE": 5.7228, "ARG_OF_PERICENTER": 313.4761, "MEAN_ANOMALY": 164.1191, "EPHEMERIS_TYPE": 0, "CLASSIFICATION_TYPE": "U", "NORAD_CAT_ID": 41747, "ELEMENT_SET_NO": 999, "REV_AT_EPOCH": 3405, "BSTAR": 0, "MEAN_MOTION_DOT": -2.1e-07, "MEAN_MOTION_DDOT": 0}, "tle": {"line1": "1 41747U 16053A   25343.93308573 -.00000021  00000+0  00000+0 0  9995", "line2": "2 41747   0.0118   5.7228 0001443 313.4761 164.1191  1.00269772 34055"}}, "geometry": {"type": "Point", "coordinates": [11.493134958140185, 0.007983890526551962]}}, {"type": "Feature", "properties": {"norad_id": 41945, "name": "INTELSAT 32E (IS-32E)", "group": "intelsat", "lat": -0.01982536615665666, "lon": -100.19495524173992, "alt_km": 35787.05028443393, "timestamp": "2025-12-10T14:53:36.790261+00:00", "meta": {"OBJECT_NAME": "INTELSAT 32E (IS-32E)", "OBJECT_ID": "2017-007B", "EPOCH": "2025-12-09T20:12:55.228896", "MEAN_MOTION": 1.00269426, "ECCENTRICITY": 4.394e-05, "INCLINATION": 0.0294, "RA_OF_ASC_NODE": 72.1437, "ARG_OF_PERICENTER": 284.528, "MEAN_ANOMALY": 342.2081, "EPHEMERIS_TYPE": 0, "CLASSIFICATION_TYPE": "U", "NORAD_CAT_ID": 41945, "ELEMENT_SET_NO": 999, "REV_AT_EPOCH": 3232, "BSTAR": 0, "MEAN_MOTION_DOT": -2.66e-06, "MEAN_MOTION_DDOT": 0}, "tle": {"line1": "1 41945U 17007B   25343.84230589 -.00000266  00000+0  00000+0 0  9997", "line2": "2 41945   0.0294  72.1437 0000439 284.5280 342.2081  1.00269426 32329"}}, "geometry": {"type": "Point", "coordinates": [-100.19495524173992, -0.01982536615665666]}}, {"type": "Feature", "properties": {"norad_id": 42818, "name": "INTELSAT 35E (IS-35E)", "group": "intelsat", "lat": -0.03428736549888693, "lon": -91.51584370434483, "alt_km": 35777.17811641303, "timestamp": "2025-12-10T14:53:36.790271+00:00", "meta": {"OBJECT_NAME": "INTELSAT 35E (IS-35E)", "OBJECT_ID": "2017-041A", "EPOCH": "2025-12-09T20:15:24.988608", "MEAN_MOTION": 1.0026928, "ECCENTRICITY": 0.0002289, "INCLINATION": 0.0182, "RA_OF_ASC_NODE": 336.435, "ARG_OF_PERICENTER": 289.2922, "MEAN_ANOMALY": 82.4516, "EPHEMERIS_TYPE": 0, "CLASSIFICATION_TYPE": "U", "NORAD_CAT_ID": 42818, "ELEMENT_SET_NO": 999, "REV_AT_EPOCH": 3091, "BSTAR": 0, "MEAN_MOTION_DOT": -2.35e-06, "MEAN_MOTION_DDOT": 0}, "tle": {"line1": "1 42818U 17041A   25343.84403922 -.00000235  00000+0  00000+0 0  9994", "line2": "2 42818   0.0182 336.4350 0002289 289.2922  82.4516  1.00269280 30912"}}, "geometry": {"type": "Point", "coordinates": [-91.51584370434483, -0.03428736549888693]}}, {"type": "Feature", "properties": {"norad_id": 42950, "name": "INTELSAT 37E (IS-37E)", "group": "intelsat", "lat": -0.03130077414038251, "lon": -74.99073130315247, "alt_km": 35774.1901991419, "timestamp": "2025-12-10T14:53:36.790282+00:00", "meta": {"OBJECT_NAME": "INTELSAT 37E (IS-37E)", "OBJECT_ID": "2017-059A", "EPOCH": "2025-12-09T20:20:09.534912", "MEAN_MOTION": 1.0027075, "ECCENTRICITY": 0.00033568, "INCLINATION": 0.0158, "RA_OF_ASC_NODE": 16.1299, "ARG_OF_PERICENTER": 238.0754, "MEAN_ANOMALY": 111.6646, "EPHEMERIS_TYPE": 0, "CLASSIFICATION_TYPE": "U", "NORAD_CAT_ID": 42950, "ELEMENT_SET_NO": 999, "REV_AT_EPOCH": 3016, "BSTAR": 0, "MEAN_MOTION_DOT": -1.38e-06, "MEAN_MOTION_DDOT": 0}, "tle": {"line1": "1 42950U 17059A   25343.84733258 -.00000138  00000+0  00000+0 0  9990", "line2": "2 42950   0.0158  16.1299 0003356 238.0754 111.6646  1.00270750 30167"}}, "geometry": {"type": "Point", "coordinates": [-74.99073130315247, -0.03130077414038251]}}, {"type": "Feature", "properties": {"norad_id": 43632, "name": "AZERSPACE 2 (IS-38)", "group": "intelsat", "lat": 0.002055981286281188, "lon": -11.883749333335812, "alt_km": 35785.753635428846, "timestamp": "2025-12-10T14:53:36.790292+00:00", "meta": {"OBJECT_NAME": "AZERSPACE 2 (IS-38)", "OBJECT_ID": "2018-074A", "EPOCH": "2025-12-10T02:36:38.721600", "MEAN_MOTION": 1.00270845, "ECCENTRICITY": 0.00015217, "INCLINATION": 0.0163, "RA_OF_ASC_NODE": 347.1733, "ARG_OF_PERICENTER": 275.6759, "MEAN_ANOMALY": 260.508, "EPHEMERIS_TYPE": 0, "CLASSIFICATION_TYPE": "U", "NORAD_CAT_ID": 43632, "ELEMENT_SET_NO": 999, "REV_AT_EPOCH": 2655, "BSTAR": 0, "MEAN_MOTION_DOT": 1.4e-06, "MEAN_MOTION_DDOT": 0}, "tle": {"line1": "1 43632U 18074A   25344.10878150  .00000140  00000+0  00000+0 0  9999", "line2": "2 43632   0.0163 347.1733 0001521 275.6759 260.5080  1.00270845 26554"}}, "geometry": {"type": "Point", "coordinates": [-11.883749333335812, 0.002055981286281188]}}, {"type": "Feature", "properties": {"norad_id": 43633, "name": "HORIZONS-3E", "group": "intelsat", "lat": -0.023009412437412502, "lon": 111.99703830059666, "alt_km": 35791.7250592307, "timestamp": "2025-12-10T14:53:36.790303+00:00", "meta": {"OBJECT_NAME": "HORIZONS-3E", "OBJECT_ID": "2018-074B", "EPOCH": "2025-12-10T04:22:38.737056", "MEAN_MOTION": 1.00269438, "ECCENTRICITY": 0.0001202, "INCLINATION": 0.0426, "RA_OF_ASC_NODE": 176.0188, "ARG_OF_PERICENTER": 105.3599, "MEAN_ANOMALY": 32.454, "EPHEMERIS_TYPE": 0, "CLASSIFICATION_TYPE": "U", "NORAD_CAT_ID": 43633, "ELEMENT_SET_NO": 999, "REV_AT_EPOCH": 2644, "BSTAR": 0, "MEAN_MOTION_DOT": -2.7e-07, "MEAN_MOTION_DDOT": 0}, "tle": {"line1": "1 43633U 18074B   25344.18239279 -.00000027  00000+0  00000+0 0  9996", "line2": "2 43633   0.0426 176.0188 0001202 105.3599  32.4540  1.00269438 26448"}}, "geometry": {"type": "Point", "coordinates": [111.99703830059666, -0.023009412437412502]}}, {"type": "Feature", "properties": {"norad_id": 44333, "name": "AT&T T-16", "group": "intelsat", "lat": 0.006917334822283329, "lon": -157.87301753304362, "alt_km": 35785.627424388316, "timestamp": "2025-12-10T14:53:36.790313+00:00", "meta": {"OBJECT_NAME": "AT&T T-16", "OBJECT_ID": "2019-034A", "EPOCH": "2025-12-10T07:31:02.562240", "MEAN_MOTION": 1.00268551, "ECCENTRICITY": 5.275e-05, "INCLINATION": 0.0276, "RA_OF_ASC_NODE": 70.2757, "ARG_OF_PERICENTER": 80.1293, "MEAN_ANOMALY": 300.7785, "EPHEMERIS_TYPE": 0, "CLASSIFICATION_TYPE": "U", "NORAD_CAT_ID": 44333, "ELEMENT_SET_NO": 999, "REV_AT_EPOCH": 2374, "BSTAR": 0, "MEAN_MOTION_DOT": -1.11e-06, "MEAN_MOTION_DDOT": 0}, "tle": {"line1": "1 44333U 19034A   25344.31322410 -.00000111  00000+0  00000+0 0  9990", "line2": "2 44333   0.0276  70.2757 0000527  80.1293 300.7785  1.00268551 23743"}}, "geometry": {"type": "Point", "coordinates": [-157.87301753304362, 0.006917334822283329]}}]}